{
  "type": "FeatureCollection",
  "features": [
    {
      "type": "Feature",
      "properties": {
        "norad_id": 22490,
        "name": "SCD 1",
        "group": "resource",
        "lat": 3.231824725314924,
        "lon": 147.2642229888864,
        "alt_km": 720.0808603991809,
        "timestamp": "2025-12-03T17:47:50.368388+00:00",
        "meta_object_name": "SCD 1",
        "meta_object_id": "1993-009B",
        "meta_epoch": "2025-12-03T11:00:20.206080",
        "meta_mean_motion": 14.45987996,
        "meta_eccentricity": 0.0041816,
        "meta_inclination": 24.971,
        "meta_ra_of_asc_node": 335.9791,
        "meta_arg_of_pericenter": 226.2897,
        "meta_mean_anomaly": 270.2791,
        "meta_ephemeris_type": 0,
        "meta_classification_type": "U",
        "meta_norad_cat_id": 22490,
        "meta_element_set_no": 999,
        "meta_rev_at_epoch": 73275,
        "meta_bstar": 0.00014087,
        "meta_mean_motion_dot": 7.02e-06,
        "meta_mean_motion_ddot": 0,
        "tle_line1": "1 22490U 93009B   25337.45856720  .00000702  00000+0  14087-3 0  9996",
        "tle_line2": "2 22490  24.9710 335.9791 0041816 226.2897 270.2791 14.45987996732759"
      },
      "geometry": {
        "type": "Point",
        "coordinates": [
          147.2642229888864,
          3.231824725314924
        ]
      }
    },
    {
      "type": "Feature",
      "properties": {
        "norad_id": 25397,
        "name": "TECHSAT 1B (GO-32)",
        "group": "resource",
        "lat": 44.654065209214735,
        "lon": 149.7461031379947,
        "alt_km": 806.0021009555267,
        "timestamp": "2025-12-03T17:47:50.368422+00:00",
        "meta_object_name": "TECHSAT 1B (GO-32)",
        "meta_object_id": "1998-043D",
        "meta_epoch": "2025-12-03T12:06:36.914688",
        "meta_mean_motion": 14.24372776,
        "meta_eccentricity": 0.0002238,
        "meta_inclination": 98.9913,
        "meta_ra_of_asc_node": 320.504,
        "meta_arg_of_pericenter": 72.7174,
        "meta_mean_anomaly": 287.4249,
        "meta_ephemeris_type": 0,
        "meta_classification_type": "U",
        "meta_norad_cat_id": 25397,
        "meta_element_set_no": 999,
        "meta_rev_at_epoch": 42347,
        "meta_bstar": 8.4963e-05,
        "meta_mean_motion_dot": 1.5e-06,
        "meta_mean_motion_ddot": 0,
        "tle_line1": "1 25397U 98043D   25337.50459392  .00000150  00000+0  84963-4 0  9996",
        "tle_line2": "2 25397  98.9913 320.5040 0002238  72.7174 287.4249 14.24372776423473"
      },
      "geometry": {
        "type": "Point",
        "coordinates": [
          149.7461031379947,
          44.654065209214735
        ]
      }
    },
    {
      "type": "Feature",
      "properties": {
        "norad_id": 25504,
        "name": "SCD 2",
        "group": "resource",
        "lat": -16.912716586138313,
        "lon": 58.127030658327314,
        "alt_km": 728.7862238220378,
        "timestamp": "2025-12-03T17:47:50.368439+00:00",
        "meta_object_name": "SCD 2",
        "meta_object_id": "1998-060A",
        "meta_epoch": "2025-12-03T07:34:14.746944",
        "meta_mean_motion": 14.45414838,
        "meta_eccentricity": 0.0016689,
        "meta_inclination": 24.9937,
        "meta_ra_of_asc_node": 200.0088,
        "meta_arg_of_pericenter": 212.8278,
        "meta_mean_anomaly": 308.9112,
        "meta_ephemeris_type": 0,
        "meta_classification_type": "U",
        "meta_norad_cat_id": 25504,
        "meta_element_set_no": 999,
        "meta_rev_at_epoch": 43195,
        "meta_bstar": 0.00010911,
        "meta_mean_motion_dot": 5.73e-06,
        "meta_mean_motion_ddot": 0,
        "tle_line1": "1 25504U 98060A   25337.31544846  .00000573  00000+0  10911-3 0  9993",
        "tle_line2": "2 25504  24.9937 200.0088 0016689 212.8278 308.9112 14.45414838431958"
      },
      "geometry": {
        "type": "Point",
        "coordinates": [
          58.127030658327314,
          -16.912716586138313
        ]
      }
    },
    {
      "type": "Feature",
      "properties": {
        "norad_id": 25757,
        "name": "DLR-TUBSAT",
        "group": "resource",
        "lat": 11.91295920171022,
        "lon": 143.8195383818455,
        "alt_km": 713.5755162763344,
        "timestamp": "2025-12-03T17:47:50.368453+00:00",
        "meta_object_name": "DLR-TUBSAT",
        "meta_object_id": "1999-029B",
        "meta_epoch": "2025-12-03T12:03:56.267712",
        "meta_mean_motion": 14.52351822,
        "meta_eccentricity": 0.00134,
        "meta_inclination": 98.6555,
        "meta_ra_of_asc_node": 321.7318,
        "meta_arg_of_pericenter": 221.9071,
        "meta_mean_anomaly": 138.1098,
        "meta_ephemeris_type": 0,
        "meta_classification_type": "U",
        "meta_norad_cat_id": 25757,
        "meta_element_set_no": 999,
        "meta_rev_at_epoch": 40484,
        "meta_bstar": 6.6409e-05,
        "meta_mean_motion_dot": 2.22e-06,
        "meta_mean_motion_ddot": 0,
        "tle_line1": "1 25757U 99029B   25337.50273458  .00000222  00000+0  66409-4 0  9993",
        "tle_line2": "2 25757  98.6555 321.7318 0013400 221.9071 138.1098 14.52351822404844"
      },
      "geometry": {
        "type": "Point",
        "coordinates": [
          143.8195383818455,
          11.91295920171022
        ]
      }
    },
    {
      "type": "Feature",
      "properties": {
        "norad_id": 25994,
        "name": "TERRA",
        "group": "resource",
        "lat": -45.01552889070918,
        "lon": 37.82000000340772,
        "alt_km": 699.1632062582985,
        "timestamp": "2025-12-03T17:47:50.368465+00:00",
        "meta_object_name": "TERRA",
        "meta_object_id": "1999-068A",
        "meta_epoch": "2025-12-03T10:21:41.743296",
        "meta_mean_motion": 14.60935008,
        "meta_eccentricity": 0.0003406,
        "meta_inclination": 97.9762,
        "meta_ra_of_asc_node": 29.4571,
        "meta_arg_of_pericenter": 116.5556,
        "meta_mean_anomaly": 9.4738,
        "meta_ephemeris_type": 0,
        "meta_classification_type": "U",
        "meta_norad_cat_id": 25994,
        "meta_element_set_no": 999,
        "meta_rev_at_epoch": 38102,
        "meta_bstar": 0.00017035,
        "meta_mean_motion_dot": 7.9e-06,
        "meta_mean_motion_ddot": 0,
        "tle_line1": "1 25994U 99068A   25337.43173314  .00000790  00000+0  17035-3 0  9991",
        "tle_line2": "2 25994  97.9762  29.4571 0003406 116.5556   9.4738 14.60935008381022"
      },
      "geometry": {
        "type": "Point",
        "coordinates": [
          37.82000000340772,
          -45.01552889070918
        ]
      }
    },
    {
      "type": "Feature",
      "properties": {
        "norad_id": 27004,
        "name": "MAROC-TUBSAT",
        "group": "resource",
        "lat": -4.651157947878824,
        "lon": 146.833805618248,
        "alt_km": 997.5087670499679,
        "timestamp": "2025-12-03T17:47:50.368478+00:00",
        "meta_object_name": "MAROC-TUBSAT",
        "meta_object_id": "2001-056D",
        "meta_epoch": "2025-12-03T11:04:37.295328",
        "meta_mean_motion": 13.70252177,
        "meta_eccentricity": 0.0019106,
        "meta_inclination": 99.7912,
        "meta_ra_of_asc_node": 145.7441,
        "meta_arg_of_pericenter": 284.8565,
        "meta_mean_anomaly": 129.7729,
        "meta_ephemeris_type": 0,
        "meta_classification_type": "U",
        "meta_norad_cat_id": 27004,
        "meta_element_set_no": 999,
        "meta_rev_at_epoch": 19938,
        "meta_bstar": 3.2894e-05,
        "meta_mean_motion_dot": -1.8e-07,
        "meta_mean_motion_ddot": 0,
        "tle_line1": "1 27004U 01056D   25337.46154277 -.00000018  00000+0  32894-4 0  9990",
        "tle_line2": "2 27004  99.7912 145.7441 0019106 284.8565 129.7729 13.70252177199385"
      },
      "geometry": {
        "type": "Point",
        "coordinates": [
          146.833805618248,
          -4.651157947878824
        ]
      }
    },
    {
      "type": "Feature",
      "properties": {
        "norad_id": 27424,
        "name": "AQUA",
        "group": "resource",
        "lat": 18.54530460457266,
        "lon": 121.31733684876362,
        "alt_km": 687.4195423135088,
        "timestamp": "2025-12-03T17:47:50.368491+00:00",
        "meta_object_name": "AQUA",
        "meta_object_id": "2002-022A",
        "meta_epoch": "2025-12-03T12:38:49.693920",
        "meta_mean_motion": 14.61772454,
        "meta_eccentricity": 7.57e-05,
        "meta_inclination": 98.4024,
        "meta_ra_of_asc_node": 298.2571,
        "meta_arg_of_pericenter": 108.7949,
        "meta_mean_anomaly": 3.7407,
        "meta_ephemeris_type": 0,
        "meta_classification_type": "U",
        "meta_norad_cat_id": 27424,
        "meta_element_set_no": 999,
        "meta_rev_at_epoch": 25468,
        "meta_bstar": 0.00033803,
        "meta_mean_motion_dot": 1.637e-05,
        "meta_mean_motion_ddot": 0,
        "tle_line1": "1 27424U 02022A   25337.52696405  .00001637  00000+0  33803-3 0  9998",
        "tle_line2": "2 27424  98.4024 298.2571 0000757 108.7949   3.7407 14.61772454254686"
      },
      "geometry": {
        "type": "Point",
        "coordinates": [
          121.31733684876362,
          18.54530460457266
        ]
      }
    }
  ]
}